[{"OBJECT_NAME":"STARLINK-2470","OBJECT_ID":"2021-036BL","EPOCH":"2026-03-10T00:00:02.999808","MEAN_MOTION":15.27176336,"ECCENTRICITY":0.00016103,"INCLINATION":53.1455,"RA_OF_ASC_NODE":99.4339,"ARG_OF_PERICENTER":99.1433,"MEAN_ANOMALY":347.7557,"EPHEMERIS_TYPE":0,"CLASSIFICATION_TYPE":"U","NORAD_CAT_ID":48334,"ELEMENT_SET_NO":999,"REV_AT_EPOCH":579,"BSTAR":0.062418193,"MEAN_MOTION_DOT":0.01853094,"MEAN_MOTION_DDOT":0},{"OBJECT_NAME":"KUIPER-00222","OBJECT_ID":"2026-030U","EPOCH":"2026-03-09T16:13:57.726048","MEAN_MOTION":15.32445377,"ECCENTRICITY":0.00128002,"INCLINATION":51.8817,"RA_OF_ASC_NODE":219.7147,"ARG_OF_PERICENTER":40.1845,"MEAN_ANOMALY":320.0084,"EPHEMERIS_TYPE":0,"CLASSIFICATION_TYPE":"U","NORAD_CAT_ID":67782,"ELEMENT_SET_NO":999,"REV_AT_EPOCH":508,"BSTAR":0.0017317201,"MEAN_MOTION_DOT":0.00055223,"MEAN_MOTION_DDOT":0}]
